[{"OBJECT_NAME":"OBJECT K","OBJECT_ID":"2025-155K","EPOCH":"2026-03-09T22:07:25.197888","MEAN_MOTION":15.34284916,"ECCENTRICITY":0.00088839,"INCLINATION":97.4419,"RA_OF_ASC_NODE":38.2399,"ARG_OF_PERICENTER":139.4299,"MEAN_ANOMALY":220.7607,"EPHEMERIS_TYPE":0,"CLASSIFICATION_TYPE":"U","NORAD_CAT_ID":64885,"ELEMENT_SET_NO":999,"REV_AT_EPOCH":6566,"BSTAR":0.00076172732,"MEAN_MOTION_DOT":0.00025288,"MEAN_MOTION_DDOT":0},{"OBJECT_NAME":"KUIPER-00222","OBJECT_ID":"2026-030U","EPOCH":"2026-03-09T16:13:57.726048","MEAN_MOTION":15.32445377,"ECCENTRICITY":0.00128002,"INCLINATION":51.8817,"RA_OF_ASC_NODE":219.7147,"ARG_OF_PERICENTER":40.1845,"MEAN_ANOMALY":320.0084,"EPHEMERIS_TYPE":0,"CLASSIFICATION_TYPE":"U","NORAD_CAT_ID":67782,"ELEMENT_SET_NO":999,"REV_AT_EPOCH":508,"BSTAR":0.0017317201,"MEAN_MOTION_DOT":0.00055223,"MEAN_MOTION_DDOT":0}]
